{
  "type": "FeatureCollection",
  "features": [
    {
      "type": "Feature",
      "properties": {
        "norad_id": 66569,
        "name": "STARLINK-35835",
        "group": "last-30-days",
        "lat": -12.042592871454909,
        "lon": -78.10525904429325,
        "alt_km": 414.2552204125941,
        "timestamp": "2025-12-18T07:01:53.340000+00:00",
        "meta_object_name": "STARLINK-35835",
        "meta_object_id": "2025-268N",
        "meta_epoch": "2025-12-17T16:16:13.533024",
        "meta_mean_motion": 15.50702959,
        "meta_eccentricity": 0.00031715,
        "meta_inclination": 42.9993,
        "meta_ra_of_asc_node": 92.2593,
        "meta_arg_of_pericenter": 244.129,
        "meta_mean_anomaly": 115.9244,
        "meta_ephemeris_type": 0,
        "meta_classification_type": "U",
        "meta_norad_cat_id": 66569,
        "meta_element_set_no": 999,
        "meta_rev_at_epoch": 539,
        "meta_bstar": 0.0011649778,
        "meta_mean_motion_dot": 0.00068919,
        "meta_mean_motion_ddot": 0,
        "tle_line1": "1 66569U 25268N   25351.67793441  .00068919  00000+0  11650-2 0  9999",
        "tle_line2": "2 66569  42.9993  92.2593 0003171 244.1290 115.9244 15.50702959  5390"
      },
      "geometry": {
        "type": "Point",
        "coordinates": [
          -78.10525904429325,
          -12.042592871454909
        ]
      }
    },
    {
      "type": "Feature",
      "properties": {
        "norad_id": 66570,
        "name": "STARLINK-35834",
        "group": "last-30-days",
        "lat": -14.43094332331026,
        "lon": -75.31412129612526,
        "alt_km": 413.7267857160823,
        "timestamp": "2025-12-18T07:01:53.340011+00:00",
        "meta_object_name": "STARLINK-35834",
        "meta_object_id": "2025-268P",
        "meta_epoch": "2025-12-17T14:42:59.675616",
        "meta_mean_motion": 15.51284924,
        "meta_eccentricity": 0.00017815,
        "meta_inclination": 43.0005,
        "meta_ra_of_asc_node": 92.6378,
        "meta_arg_of_pericenter": 300.8834,
        "meta_mean_anomaly": 59.1851,
        "meta_ephemeris_type": 0,
        "meta_classification_type": "U",
        "meta_norad_cat_id": 66570,
        "meta_element_set_no": 999,
        "meta_rev_at_epoch": 538,
        "meta_bstar": 0.0039465176,
        "meta_mean_motion_dot": 0.00244647,
        "meta_mean_motion_ddot": 0,
        "tle_line1": "1 66570U 25268P   25351.61319069  .00244647  00000+0  39465-2 0  9993",
        "tle_line2": "2 66570  43.0005  92.6378 0001781 300.8834  59.1851 15.51284924  5382"
      },
      "geometry": {
        "type": "Point",
        "coordinates": [
          -75.31412129612526,
          -14.43094332331026
        ]
      }
    },
    {
      "type": "Feature",
      "properties": {
        "norad_id": 66571,
        "name": "STARLINK-35836",
        "group": "last-30-days",
        "lat": -14.419864376415443,
        "lon": -75.32930574474378,
        "alt_km": 415.2129897798468,
        "timestamp": "2025-12-18T07:01:53.340022+00:00",
        "meta_object_name": "STARLINK-35836",
        "meta_object_id": "2025-268Q",
        "meta_epoch": "2025-12-17T17:48:00.326880",
        "meta_mean_motion": 15.50627422,
        "meta_eccentricity": 0.0001518,
        "meta_inclination": 43.0008,
        "meta_ra_of_asc_node": 91.8794,
        "meta_arg_of_pericenter": 198.3419,
        "meta_mean_anomaly": 161.7387,
        "meta_ephemeris_type": 0,
        "meta_classification_type": "U",
        "meta_norad_cat_id": 66571,
        "meta_element_set_no": 999,
        "meta_rev_at_epoch": 540,
        "meta_bstar": 0.00045693248,
        "meta_mean_motion_dot": 0.00026602,
        "meta_mean_motion_ddot": 0,
        "tle_line1": "1 66571U 25268Q   25351.74167045  .00026602  00000+0  45693-3 0  9993",
        "tle_line2": "2 66571  43.0008  91.8794 0001518 198.3419 161.7387 15.50627422  5406"
      },
      "geometry": {
        "type": "Point",
        "coordinates": [
          -75.32930574474378,
          -14.419864376415443
        ]
      }
    },
    {
      "type": "Feature",
      "properties": {
        "norad_id": 66572,
        "name": "STARLINK-35870",
        "group": "last-30-days",
        "lat": -15.570109344552694,
        "lon": -73.95054236631022,
        "alt_km": 416.3528996815012,
        "timestamp": "2025-12-18T07:01:53.340033+00:00",
        "meta_object_name": "STARLINK-35870",
        "meta_object_id": "2025-268R",
        "meta_epoch": "2025-12-17T22:00:01.999584",
        "meta_mean_motion": 15.50553956,
        "meta_eccentricity": 0.0001554,
        "meta_inclination": 43.0009,
        "meta_ra_of_asc_node": 90.8526,
        "meta_arg_of_pericenter": 275.9245,
        "meta_mean_anomaly": 344.2311,
        "meta_ephemeris_type": 0,
        "meta_classification_type": "U",
        "meta_norad_cat_id": 66572,
        "meta_element_set_no": 999,
        "meta_rev_at_epoch": 550,
        "meta_bstar": 0.00026436509,
        "meta_mean_motion_dot": 0.00015184,
        "meta_mean_motion_ddot": 0,
        "tle_line1": "1 66572U 25268R   25351.91668981  .00015184  00000+0  26437-3 0  9996",
        "tle_line2": "2 66572  43.0009  90.8526 0001554 275.9245 344.2311 15.50553956  5505"
      },
      "geometry": {
        "type": "Point",
        "coordinates": [
          -73.95054236631022,
          -15.570109344552694
        ]
      }
    },
    {
      "type": "Feature",
      "properties": {
        "norad_id": 66573,
        "name": "STARLINK-35650",
        "group": "last-30-days",
        "lat": -21.405613196057615,
        "lon": -66.4958227313064,
        "alt_km": 414.3480587290014,
        "timestamp": "2025-12-18T07:01:53.340043+00:00",
        "meta_object_name": "STARLINK-35650",
        "meta_object_id": "2025-268S",
        "meta_epoch": "2025-12-16T15:29:39.161760",
        "meta_mean_motion": 15.51253867,
        "meta_eccentricity": 0.00025406,
        "meta_inclination": 42.9964,
        "meta_ra_of_asc_node": 98.2753,
        "meta_arg_of_pericenter": 312.0819,
        "meta_mean_anomaly": 47.9825,
        "meta_ephemeris_type": 0,
        "meta_classification_type": "U",
        "meta_norad_cat_id": 66573,
        "meta_element_set_no": 999,
        "meta_rev_at_epoch": 523,
        "meta_bstar": 0.002315295,
        "meta_mean_motion_dot": 0.00141337,
        "meta_mean_motion_ddot": 0,
        "tle_line1": "1 66573U 25268S   25350.64559215  .00141337  00000+0  23153-2 0  9996",
        "tle_line2": "2 66573  42.9964  98.2753 0002540 312.0819  47.9825 15.51253867  5230"
      },
      "geometry": {
        "type": "Point",
        "coordinates": [
          -66.4958227313064,
          -21.405613196057615
        ]
      }
    },
    {
      "type": "Feature",
      "properties": {
        "norad_id": 66574,
        "name": "STARLINK-35812",
        "group": "last-30-days",
        "lat": -18.124443724521704,
        "lon": -70.79382365754856,
        "alt_km": 416.11888664771413,
        "timestamp": "2025-12-18T07:01:53.340053+00:00",
        "meta_object_name": "STARLINK-35812",
        "meta_object_id": "2025-268T",
        "meta_epoch": "2025-12-17T16:13:45.728544",
        "meta_mean_motion": 15.50589405,
        "meta_eccentricity": 0.00013555,
        "meta_inclination": 42.9988,
        "meta_ra_of_asc_node": 92.2495,
        "meta_arg_of_pericenter": 263.985,
        "meta_mean_anomaly": 96.0855,
        "meta_ephemeris_type": 0,
        "meta_classification_type": "U",
        "meta_norad_cat_id": 66574,
        "meta_element_set_no": 999,
        "meta_rev_at_epoch": 539,
        "meta_bstar": 0.0010775631,
        "meta_mean_motion_dot": 0.00063411,
        "meta_mean_motion_ddot": 0,
        "tle_line1": "1 66574U 25268T   25351.67622371  .00063411  00000+0  10776-2 0  9998",
        "tle_line2": "2 66574  42.9988  92.2495 0001355 263.9850  96.0855 15.50589405  5390"
      },
      "geometry": {
        "type": "Point",
        "coordinates": [
          -70.79382365754856,
          -18.124443724521704
        ]
      }
    },
    {
      "type": "Feature",
      "properties": {
        "norad_id": 66575,
        "name": "STARLINK-35810",
        "group": "last-30-days",
        "lat": -19.381751352438997,
        "lon": -69.18020091525216,
        "alt_km": 415.08603803430196,
        "timestamp": "2025-12-18T07:01:53.340063+00:00",
        "meta_object_name": "STARLINK-35810",
        "meta_object_id": "2025-268U",
        "meta_epoch": "2025-12-17T16:13:15.621600",
        "meta_mean_motion": 15.50617096,
        "meta_eccentricity": 0.00029788,
        "meta_inclination": 42.9962,
        "meta_ra_of_asc_node": 92.2472,
        "meta_arg_of_pericenter": 246.3042,
        "meta_mean_anomaly": 113.7505,
        "meta_ephemeris_type": 0,
        "meta_classification_type": "U",
        "meta_norad_cat_id": 66575,
        "meta_element_set_no": 999,
        "meta_rev_at_epoch": 539,
        "meta_bstar": 0.001056294,
        "meta_mean_motion_dot": 0.00062211,
        "meta_mean_motion_ddot": 0,
        "tle_line1": "1 66575U 25268U   25351.67587525  .00062211  00000+0  10563-2 0  9991",
        "tle_line2": "2 66575  42.9962  92.2472 0002978 246.3042 113.7505 15.50617096  5395"
      },
      "geometry": {
        "type": "Point",
        "coordinates": [
          -69.18020091525216,
          -19.381751352438997
        ]
      }
    }
  ]
}